{"type": "FeatureCollection", "features": [{"type": "Feature", "properties": {"Quadrant": "South East"}, "geometry": {"type": "Polygon", "coordinates": [[[-2.108508957636511, 52.77112227741427], [-2.108560774454297, 52.771097958202105], [-2.10868535405497, 52.77112750927996], [-2.108731324338017, 52.771136186890764], [-2.108840834948354, 52.77112619777056], [-2.108919358109745, 52.77111255136646], [-2.108926762409254, 52.77110984769739], [-2.108937122128992, 52.7711035455008], [-2.108945826446849, 52.771087266462594], [-2.108950259799887, 52.771081958566505], [-2.108954694951573, 52.77107736983], [-2.108962096993114, 52.771073767209046], [-2.108970981241344, 52.771070163222994], [-2.10898283440415, 52.7710683544062], [-2.108994692066931, 52.77106834348759], [-2.109008040940568, 52.771071927001415], [-2.109018429902155, 52.77107731114361], [-2.109028969338326, 52.77108359409798], [-2.109043823168005, 52.77109625563421], [-2.109054236908595, 52.77111152821962], [-2.109064648404556, 52.77112590185442], [-2.109075055403097, 52.77113847758892], [-2.109083982449315, 52.77115195363817], [-2.109095871670758, 52.77116452800476], [-2.10911963661583, 52.7711842830363], [-2.109131514589822, 52.77119236265094], [-2.109150661944345, 52.77120304252101], [-2.109169955500825, 52.77121291319658], [-2.109189251320531, 52.77122368281865], [-2.109201131572879, 52.77123266137589], [-2.109215980767662, 52.771243435095954], [-2.109233785376395, 52.77125061027977], [-2.109250094016603, 52.77125230323616], [-2.109269360769124, 52.771251476394674], [-2.109287138311681, 52.771247864174725], [-2.1092970638195885, 52.77124451396536], [-2.1120924679021043, 52.804173450836025], [-2.0819181654645296, 52.80346099715587], [-2.081898883725491, 52.803421324988705], [-2.081821564388843, 52.80334319260526], [-2.081704356857065, 52.803319009242024], [-2.081480232800097, 52.80328141884481], [-2.081245850700747, 52.80325102484489], [-2.081076694364971, 52.80324215412524], [-2.08034407392711, 52.80328309487073], [-2.079848757198113, 52.803347236573], [-2.079600565584236, 52.80340627567333], [-2.0780987928979773, 52.803370816909066], [-2.078002026792888, 52.80334487474683], [-2.077711200424037, 52.803277664052125], [-2.077122330169185, 52.80327804946907], [-2.076806403873334, 52.80326297744146], [-2.07649180416179, 52.80323711905231], [-2.076165355611136, 52.80314916822646], [-2.075976623737624, 52.802925516618835], [-2.075833799245059, 52.80272690780022], [-2.075666054622898, 52.802614679257545], [-2.075189652072423, 52.802442344858086], [-2.074370616501374, 52.80229278087143], [-2.073720568035997, 52.8021241445253], [-2.073306687745236, 52.80203363424683], [-2.073256161523455, 52.80202288179051], [-2.072815444065414, 52.80189904448214], [-2.072744215822775, 52.80186853311675], [-2.07266552536063, 52.80183532945365], [-2.07251854097, 52.801771613334786], [-2.072245382488832, 52.80158026979592], [-2.072084884707675, 52.80140422449646], [-2.072065516311207, 52.80137637703871], [-2.0719228021131, 52.801157093014815], [-2.071817122468453, 52.80092430751423], [-2.071662113766474, 52.800515407645236], [-2.071474720479445, 52.80019190282591], [-2.071332078072901, 52.80001216089084], [-2.071281604045416, 52.79995647278989], [-2.07122059073799, 52.79988820935168], [-2.070880380680915, 52.79951356990188], [-2.070595019969946, 52.79917574366697], [-2.070210320114002, 52.79880831858852], [-2.070017212329316, 52.79864657854174], [-2.069677322169191, 52.79845886338767], [-2.069285487465667, 52.79828654521176], [-2.069047981099819, 52.79819142270697], [-2.06844701830271, 52.79800295725418], [-2.068291310011832, 52.79797698591683], [-2.068298275027523, 52.79796960513105], [-2.068412657022117, 52.79784840313832], [-2.068424500607233, 52.797836712664754], [-2.068020691990673, 52.79758522333021], [-2.067097669969912, 52.797252246701355], [-2.067085804070593, 52.79724865854474], [-2.067152065698732, 52.79692230657044], [-2.067331666900776, 52.79603582588692], [-2.067300466199194, 52.796022363034425], [-2.067120964774622, 52.79594598711589], [-2.066935414316433, 52.79583285727765], [-2.066855143685681, 52.795716971708146], [-2.066855085585597, 52.795679226723834], [-2.066909808190287, 52.79564145074507], [-2.066915661093573, 52.79555148793357], [-2.066946830962978, 52.795544281400076], [-2.067392984490386, 52.795440678563914], [-2.067526427455588, 52.795386680830056], [-2.06764042310957, 52.79525082330316], [-2.068090424507361, 52.79471934882269], [-2.068722546866419, 52.79399706493222], [-2.068287726733459, 52.793831958108456], [-2.068076719141198, 52.793542611346645], [-2.068072947587706, 52.79300771242902], [-2.068109822866719, 52.79289805097793], [-2.068183800042373, 52.79282251826208], [-2.068292029070843, 52.7927576605039], [-2.068440118047134, 52.79269197052346], [-2.068665448472494, 52.79260646405166], [-2.068697410091776, 52.792173995644596], [-2.068680461045473, 52.79181713470341], [-2.068687657238849, 52.79165087272372], [-2.068944651753045, 52.7910277500856], [-2.068794804550584, 52.790982004493586], [-2.069416248066542, 52.790122223068906], [-2.069656236569436, 52.789961126063766], [-2.069790960501126, 52.78980377554635], [-2.069919712886408, 52.78965892019397], [-2.070085455174941, 52.789479982508965], [-2.070440745759379, 52.78910312982082], [-2.070761868289902, 52.78869475238455], [-2.070776632993429, 52.78867676996409], [-2.070801887357541, 52.78864440167504], [-2.070880216975581, 52.788546397186025], [-2.071182192686411, 52.788171372063694], [-2.071187927439194, 52.78809039578844], [-2.071189340926141, 52.78805714371605], [-2.071195086969382, 52.78790795698503], [-2.071408982113922, 52.78728036159828], [-2.071503930784665, 52.7872542427818], [-2.071884857510106, 52.78628225589177], [-2.072082688583331, 52.78578318176834], [-2.072206684888566, 52.78543612066983], [-2.072452894733077, 52.78462867485107], [-2.072550102012692, 52.78420164660414], [-2.072614583009122, 52.783797105796495], [-2.07263065373097, 52.78361187545383], [-2.072666734047306, 52.78303740917985], [-2.072669510383687, 52.78294304472403], [-2.072690836886523, 52.782391953846314], [-2.072721185856668, 52.78190025997114], [-2.072744409238999, 52.781607181730124], [-2.072764875822847, 52.78141925264458], [-2.072820865161261, 52.781203532212444], [-2.072919862680348, 52.78104880595418], [-2.072550460659058, 52.78090164765774], [-2.072990323546784, 52.78064336208557], [-2.073302791434813, 52.7804444684458], [-2.073444992191636, 52.780323955046256], [-2.073474440842404, 52.78024575056376], [-2.073416520680911, 52.78018548406966], [-2.073245980509731, 52.78009931580013], [-2.073131654682528, 52.78000502377344], [-2.073131509394577, 52.779918659024666], [-2.073288273802855, 52.77973702615889], [-2.073927825318377, 52.779176562225416], [-2.074210560213886, 52.77896959597384], [-2.074367513554197, 52.77883109856342], [-2.07473592459159, 52.77840839106306], [-2.075419956929049, 52.778781004063006], [-2.075563967121797, 52.77886449023183], [-2.075693082759614, 52.77895697346563], [-2.076470780986717, 52.7794796918216], [-2.0771565854775, 52.78000605993348], [-2.077667431873351, 52.78043269448375], [-2.077985856370444, 52.780297681063466], [-2.078291052504031, 52.78014820694041], [-2.078639093592654, 52.77996644022363], [-2.078895383200888, 52.77987990468378], [-2.079079131621923, 52.77982945513179], [-2.079332536668473, 52.779770870734396], [-2.079531096423743, 52.77973209330215], [-2.079738594003886, 52.77970229721601], [-2.080620597831371, 52.77961901922173], [-2.08085910033939, 52.779567540728884], [-2.081139344480594, 52.77954757819141], [-2.081287605259761, 52.779543881485644], [-2.081610794654131, 52.779546354876665], [-2.082234965015831, 52.77957288297453], [-2.082538889931106, 52.77960053064599], [-2.082746487588735, 52.77962474085774], [-2.083124664811851, 52.77968289038017], [-2.083465695921467, 52.77974645771688], [-2.083688255544522, 52.779795728343515], [-2.083803929312527, 52.77981631601009], [-2.084042578655513, 52.779842209056824], [-2.084479961232001, 52.779857175152884], [-2.085090749413633, 52.779850446515105], [-2.085751927997485, 52.77985805782424], [-2.086036703671216, 52.77990548102899], [-2.086156793346183, 52.779933343788166], [-2.086239963424461, 52.779959344651814], [-2.086314103066812, 52.77999254274923], [-2.086370519375591, 52.78002575284254], [-2.086432832439791, 52.78007423715859], [-2.086851865185334, 52.78050898709135], [-2.086951233899373, 52.780565621670384], [-2.087047768742528, 52.780611383651156], [-2.087151628567478, 52.7806517491531], [-2.087267339012224, 52.78068940897238], [-2.087379976092676, 52.78071808324531], [-2.087489777124616, 52.780734178701636], [-2.087658722605461, 52.78074214239305], [-2.087995451797152, 52.78078682643391], [-2.088431400420637, 52.780872866209634], [-2.089281213990144, 52.78100433586431], [-2.089521423153254, 52.78101044520421], [-2.089846041827573, 52.78098952867648], [-2.090004701637822, 52.78098761108397], [-2.090065442230878, 52.78098217295851], [-2.090945584578998, 52.78076572289584], [-2.091136804805838, 52.78072783063938], [-2.0912657387596, 52.780716048498824], [-2.091433332229451, 52.780719514007295], [-2.091510329763643, 52.780714062577765], [-2.091673345104947, 52.780691468925], [-2.091749858268074, 52.78069398600947], [-2.091756417788591, 52.78069364921017], [-2.091766053321979, 52.78069319226238], [-2.091789775788373, 52.7806940728116], [-2.091801637970427, 52.78069496255877], [-2.091901736663806, 52.78070791962968], [-2.091914341069623, 52.78070925826419], [-2.091926206107686, 52.78071149642189], [-2.091938072096873, 52.780714184052805], [-2.091946973964719, 52.78071732346105], [-2.091955134565584, 52.78072046344471], [-2.091963297067959, 52.78072450237647], [-2.092027853970809, 52.78075591543827], [-2.092076833844593, 52.780782396361936], [-2.092131738224477, 52.78080617580185], [-2.092171802977074, 52.780823224651144], [-2.092176994724208, 52.7808245690319], [-2.09218292774171, 52.780825912834935], [-2.092188120441992, 52.780827706689514], [-2.092192570920061, 52.780829051647146], [-2.092197762668528, 52.780830396026985], [-2.092202954417313, 52.780831740406605], [-2.092210370929643, 52.780833532527296], [-2.092214819503466, 52.78083397853543], [-2.092259310966011, 52.78084113545348], [-2.092358675539463, 52.78085723903667], [-2.092394264164003, 52.78086080705253], [-2.092546993643943, 52.7808737224695], [-2.092640406214101, 52.78087949254542], [-2.092661164672743, 52.780880824716114], [-2.092681181861655, 52.78088215746382], [-2.092701938407235, 52.780882590678736], [-2.09276791152614, 52.78088253897297], [-2.092778288361537, 52.78088208136184], [-2.092785701071434, 52.78088207554927], [-2.092792371551624, 52.78088162084321], [-2.092799784261439, 52.780881615029756], [-2.092851665555476, 52.78087797852808], [-2.09293097002191, 52.78087252256863], [-2.092944310015902, 52.78087116366554], [-2.092956908738286, 52.78086980534331], [-2.092970248730637, 52.7808684464373], [-2.092986551883649, 52.78086618625106], [-2.093002113764292, 52.78086392664521], [-2.093018416913959, 52.78086166645459], [-2.093082144069647, 52.78085127841306], [-2.093167361295088, 52.78083772709272], [-2.093185146966755, 52.78083546571186], [-2.093202930710691, 52.7808323053797], [-2.093221456685262, 52.78082959393518], [-2.093285924051745, 52.780818755725846], [-2.093367430943293, 52.780803409286534], [-2.093374838816136, 52.780801156065586], [-2.093405959593978, 52.780795288327035], [-2.093476356052591, 52.78078399585854], [-2.093483765848172, 52.78078264157941], [-2.093491176609205, 52.780781736774145], [-2.093498587369929, 52.78078083196841], [-2.093507480668821, 52.780779925990636], [-2.093515632698121, 52.78077902059804], [-2.093523783760836, 52.780777665730575], [-2.093566033205147, 52.78077628390433], [-2.093634240610417, 52.78078117417596], [-2.093640913968636, 52.78078206784518], [-2.093647588294651, 52.78078341098831], [-2.093655001955198, 52.78078385459576], [-2.093663899122204, 52.78078474650354], [-2.093672794354009, 52.78078473946199], [-2.093682430855129, 52.78078473183293], [-2.093744702320247, 52.78078692989007], [-2.093852192193893, 52.78078954153297], [-2.093871469077463, 52.78079132414214], [-2.093893721711059, 52.780798048612816], [-2.093913747631759, 52.78080342642139], [-2.093940441102716, 52.78080700103308], [-2.093988637226989, 52.780813255411516], [-2.093996051867162, 52.78081414847194], [-2.094003466507637, 52.780815041531895], [-2.094010139878576, 52.78081593518033], [-2.094014588468918, 52.780816381120985], [-2.094019037059351, 52.78081682706147], [-2.094022744380012, 52.78081727359081], [-2.094065764271429, 52.78082937522679], [-2.094140685068663, 52.780853587298566], [-2.094185934679031, 52.78086838396743], [-2.094190386195863, 52.78087017832439], [-2.094195578010676, 52.78087152261678], [-2.094200028555007, 52.78087286749907], [-2.094207445156209, 52.780874659494884], [-2.094214119513794, 52.78087600260612], [-2.094221535142668, 52.780877345126754], [-2.094225983741423, 52.78087779105946], [-2.094231174584702, 52.78087868587601], [-2.094235623183692, 52.780879131808355], [-2.094269729436948, 52.78088270044227], [-2.094330526325591, 52.78088849516734], [-2.094336457468741, 52.78088893991404], [-2.094341647340928, 52.78088938525144], [-2.094346838187954, 52.78089028006291], [-2.094354253823328, 52.780891622575254], [-2.094361669459159, 52.78089296508711], [-2.094369086070405, 52.78089475707281], [-2.09438910916851, 52.780898786378124], [-2.094472906003384, 52.78091400165795], [-2.094515915373678, 52.78092115891323], [-2.094521106228048, 52.780922053717056], [-2.094525556787555, 52.78092339858713], [-2.094530007347336, 52.78092474345702], [-2.094535201132435, 52.78092698668311], [-2.094539654623031, 52.78092967997552], [-2.094544109090942, 52.780932822742045], [-2.094552271872527, 52.780936861495455], [-2.094560435632555, 52.78094134972259], [-2.094568599394264, 52.78094583794916], [-2.094580472449624, 52.78095167163564], [-2.094592344530896, 52.78095705584662], [-2.094604217592482, 52.780962889530684], [-2.094620548067304, 52.78097321440005], [-2.094628035561568, 52.78097827489557], [-2.095093005108064, 52.781074399054624], [-2.09509656000699, 52.78135847342007], [-2.095077641680661, 52.78153921534163], [-2.095055696709063, 52.78167763172481], [-2.09509754456528, 52.781808896943915], [-2.095094795203608, 52.78189337618237], [-2.095084593870581, 52.781979659307666], [-2.094998940052329, 52.78216404970373], [-2.094971124464937, 52.78230157181931], [-2.095030696606758, 52.78243192477086], [-2.095409913944216, 52.78294576142424], [-2.095496197981139, 52.7831039519426], [-2.095546832100185, 52.78317131252958], [-2.095601741273649, 52.783236872639925], [-2.095762171742587, 52.78336894068099], [-2.095842537962794, 52.783503679429565], [-2.096126340962552, 52.78375876804277], [-2.096165102357595, 52.78387376885297], [-2.096113407624591, 52.783935821299394], [-2.095940107053669, 52.78406636176879], [-2.095907656935492, 52.784096943371864], [-2.095789583383865, 52.784382015033884], [-2.095728967319474, 52.784445870629455], [-2.095663826974133, 52.78450883180019], [-2.095301143933109, 52.784742874701614], [-2.095188786580428, 52.7849047293082], [-2.094879648414554, 52.78525384999008], [-2.094711156199367, 52.785463380859824], [-2.094360312229689, 52.7857504332015], [-2.094139887229316, 52.78597267623105], [-2.093864560160395, 52.78619127671175], [-2.095168377667322, 52.78641679573845], [-2.095437720389135, 52.786147780390294], [-2.095521950730282, 52.786036274172886], [-2.095561769803689, 52.78596434675042], [-2.095597160896946, 52.7858807392455], [-2.095625194966408, 52.785787162931264], [-2.095846899142977, 52.785483135968306], [-2.095919244788235, 52.78536085528277], [-2.095966675814413, 52.78530419919229], [-2.096039143641044, 52.78523754712366], [-2.096132387817411, 52.78516737402921], [-2.096228600226635, 52.7851133741446], [-2.096277577021032, 52.785093562813366], [-2.096324973776145, 52.785077347647054], [-2.096450942590115, 52.78504579080252], [-2.096613951589664, 52.78501420359033], [-2.096857038551645, 52.784985246591184], [-2.097046750855017, 52.784977902270825], [-2.09731071654333, 52.784992064211586], [-2.097622086646659, 52.784993604773284], [-2.098738446388149, 52.78493516295334], [-2.098791726620833, 52.784926041795885], [-2.098861359080613, 52.78490441515281], [-2.098925108726469, 52.784876501638166], [-2.098985782049223, 52.78483960476215], [-2.099095370507162, 52.78475593501341], [-2.09911846552718, 52.7847172635377], [-2.099134179115574, 52.78470368702489], [-2.099141907904954, 52.78469700854677], [-2.099145578732505, 52.78468127385361], [-2.099145574635267, 52.78467947595782], [-2.09914627294937, 52.784660597431106], [-2.099144004899635, 52.78464127191453], [-2.099143997729595, 52.78463812559688], [-2.099138769465836, 52.784621049933975], [-2.099132800896259, 52.78460442436569], [-2.099130543096952, 52.78458959358817], [-2.099127543965586, 52.784574763431515], [-2.099123048856627, 52.78455409135515], [-2.099115588420347, 52.78453342176201], [-2.099107382562966, 52.784510954893285], [-2.099096952717645, 52.78448848988612], [-2.099064927032578, 52.784423342848996], [-2.099015813005544, 52.78434157953199], [-2.09896597214875, 52.784266109449064], [-2.098948818347611, 52.784220726833915], [-2.098924275842299, 52.78418613778837], [-2.0988871073295, 52.78414122136665], [-2.098856624099603, 52.78410214252191], [-2.098805319517679, 52.78403476413859], [-2.09876074618236, 52.783993449656876], [-2.098706512277687, 52.783941805294184], [-2.098635197525372, 52.78387669089755], [-2.098579488401972, 52.783828194029425], [-2.098531211944465, 52.78378823096935], [-2.098454710505351, 52.78372401973061], [-2.098399750212131, 52.78367866847816], [-2.098341814602848, 52.78362882492357], [-2.098305414887836, 52.78359559402388], [-2.098273475310174, 52.78356775310785], [-2.098217753792484, 52.783513412904405], [-2.098185813316599, 52.78348512249029], [-2.098121935530298, 52.78342989005799], [-2.09808851255037, 52.78340160084652], [-2.098020925407868, 52.78334502300881], [-2.097999367604246, 52.78331852184335], [-2.097977083698279, 52.78329876339852], [-2.097965199428996, 52.78328843531412], [-2.097954057488916, 52.78327855608898], [-2.097937710184877, 52.78326148957218], [-2.097928794214772, 52.78325250745228], [-2.09792062057098, 52.783243974192395], [-2.097912440861085, 52.78323274408749], [-2.097905002466037, 52.78322151336873], [-2.097895331041145, 52.7832062392225], [-2.097887882542072, 52.78319051376188], [-2.09787894333908, 52.783171193734354], [-2.097872228072362, 52.783151871866906], [-2.097849874556974, 52.783101099686], [-2.097828270486823, 52.78305392268033], [-2.09781037360467, 52.78300701229139], [-2.097788762956201, 52.78295686874871], [-2.097779824855282, 52.78293799818702], [-2.097769405161177, 52.78291957832354], [-2.09775601015586, 52.78289666616754], [-2.097740392260218, 52.7828742053208], [-2.097727008389978, 52.78285623737646], [-2.097712884236127, 52.78283871951675], [-2.097697278495279, 52.782821652353356], [-2.097690592631225, 52.782815365223485], [-2.097670541104877, 52.782799200676244], [-2.097649011022301, 52.782784835245394], [-2.097643071517748, 52.782780794871684], [-2.09760298468043, 52.782755657343294], [-2.097566623552189, 52.78273905675362], [-2.097535451566726, 52.782722451876126], [-2.097525032027379, 52.782704031990434], [-2.097522045662323, 52.782694595477565], [-2.097520542909104, 52.78268560721696], [-2.097521251970657, 52.7826712234343], [-2.097524186949937, 52.78265773676715], [-2.097530082092782, 52.782642000285605], [-2.097536718531904, 52.78262626319276], [-2.097546321175026, 52.782610973129515], [-2.097556667127149, 52.782596581402615], [-2.097567022144156, 52.78258623494192], [-2.097592179960387, 52.7825655383499], [-2.097621049291058, 52.7825470860657], [-2.097629932777807, 52.78254168503783], [-2.097659546402251, 52.78252458055501], [-2.097690646637429, 52.78250927273744], [-2.097703975879754, 52.78250296908405], [-2.097736562719101, 52.782489457926864], [-2.097771376462358, 52.78247729334582], [-2.09780915537731, 52.78246512630386], [-2.097833601021968, 52.78245746502285], [-2.097918776405604, 52.78242458290544], [-2.097950624858709, 52.782412420725116], [-2.098049858359914, 52.78236784052749], [-2.098086151470588, 52.78235432620315], [-2.098132808504979, 52.78233451062449], [-2.098144658080819, 52.78232955657326], [-2.098189842615611, 52.782314236943016], [-2.09822614071203, 52.78230296994648], [-2.098330584074628, 52.7822678241634], [-2.098385406320516, 52.782252945925244], [-2.098489096949355, 52.782212856403184], [-2.09852537859881, 52.78219439772871], [-2.098537228091982, 52.78218944363819], [-2.098550559150365, 52.782184038837755], [-2.098569071109494, 52.78217503392085], [-2.098587582042512, 52.782165579526904], [-2.098620162243185, 52.78214937128167], [-2.098637935937943, 52.782141715394154], [-2.098656449899421, 52.78213360941185], [-2.098703087065108, 52.78210525359967], [-2.098719372025371, 52.782094902091536], [-2.098735655957915, 52.782084101106996], [-2.098751196550999, 52.78207240179048], [-2.09876525863515, 52.782062501605786], [-2.098777093779428, 52.78205125485315], [-2.098778572279159, 52.782049455719104], [-2.098783740904349, 52.7820404619049], [-2.098785960693951, 52.78203866215199], [-2.098787268891571, 52.782027154499936], [-2.098793224594305, 52.78197303273773], [-2.098793155195025, 52.78194246849507], [-2.098791645062122, 52.78193033393042], [-2.098789394662137, 52.7819186494587], [-2.098786402975087, 52.78190696560567], [-2.098781929733953, 52.781895732464214], [-2.098776717248044, 52.781885398889614], [-2.098770021168808, 52.78187461707796], [-2.098724599663981, 52.78178520944912], [-2.098661265208016, 52.78164187973298], [-2.098602373763837, 52.78149629890273], [-2.098562132385009, 52.78140266182465], [-2.098553594647948, 52.781364193870544], [-2.098543438532873, 52.78133121085888], [-2.098539034473804, 52.78128500849012], [-2.098540310021471, 52.7811281406304], [-2.098556914618326, 52.78099723966113], [-2.098577859218274, 52.780884314075145], [-2.098612597221553, 52.78077398394593], [-2.098636185371309, 52.780715532525136], [-2.098648720690059, 52.78068630619488], [-2.098659041363246, 52.7806611269854], [-2.098665685248383, 52.78064898561852], [-2.098672334226245, 52.780639091622554], [-2.09867972548702, 52.78062964648235], [-2.098687858011006, 52.78062020072354], [-2.098699691764908, 52.78060850450179], [-2.098726328396297, 52.7805869074782], [-2.098751490631137, 52.7805689074798], [-2.09877887970205, 52.78055225404266], [-2.098807010017024, 52.78053559998027], [-2.098860318800728, 52.7805081374778], [-2.098993586887281, 52.78043790795647], [-2.099014313621506, 52.78042530531346], [-2.099034298057873, 52.780412253812855], [-2.099046879063996, 52.780403253781465], [-2.099059459041667, 52.78039380427446], [-2.099071297751493, 52.78038435538663], [-2.099086836626102, 52.78037220654883], [-2.099101634230077, 52.78036005832972], [-2.099115690564038, 52.78034791072956], [-2.099119536115126, 52.78034395212761], [-2.099124565226707, 52.7803389137939], [-2.099133438861695, 52.78032946738326], [-2.09914157123154, 52.78032002159295], [-2.099160785640042, 52.780294385412056], [-2.099176291674905, 52.78026785338544], [-2.099332789378329, 52.77998320436256], [-2.099454490431483, 52.7797179117991], [-2.09945964117659, 52.77970127688866], [-2.099468460154613, 52.77966800831305], [-2.099474334670796, 52.77964373171533], [-2.099479468958629, 52.77961990521463], [-2.099484602213259, 52.77959562923929], [-2.099532201491566, 52.77934118625248], [-2.099543161817661, 52.77927195785109], [-2.099575376430781, 52.77909708488842], [-2.099610484743688, 52.77889119568429], [-2.099645520679925, 52.77865384325504], [-2.099683579840783, 52.778442108350276], [-2.099707079820529, 52.77834635031807], [-2.099741588887039, 52.778202938620154], [-2.09977535341277, 52.77805817911041], [-2.09981428048421, 52.77790217835031], [-2.099823864794671, 52.77787969650014], [-2.099837796386811, 52.777813611875054], [-2.099858319477753, 52.77771291208511], [-2.099858300912679, 52.77770482154472], [-2.099859022532932, 52.77769628090441], [-2.099858937958235, 52.777659423998], [-2.099857422521846, 52.77764504206583], [-2.099855164839507, 52.777630211284524], [-2.099852166974697, 52.77761583060304], [-2.099818497022526, 52.77754304400115], [-2.099781378072508, 52.77738836588681], [-2.099755058491952, 52.77728851464939], [-2.099747661117317, 52.777230268876664], [-2.099745348274633, 52.77719134625869], [-2.099747097392467, 52.777113675439054], [-2.099759616304314, 52.777078066436324], [-2.099777537880489, 52.77700658474109], [-2.099811898040224, 52.776928077362705], [-2.099829401555642, 52.77686828237078], [-2.099852978751338, 52.77680668434943], [-2.099874929159169, 52.776746795702245], [-2.099904413121188, 52.776675304225094], [-2.099929031706614, 52.77661541331404], [-2.099947428089603, 52.776557235659006], [-2.09999929172677, 52.77641938267898], [-2.100060228475826, 52.77616600681116], [-2.100061488212283, 52.7761336435132], [-2.100062591441482, 52.7760976845437], [-2.100066292466181, 52.776031069150775], [-2.100060804824169, 52.77596536047747], [-2.100059943555255, 52.775913132155836], [-2.100054985590399, 52.77588436991734], [-2.100045075673198, 52.775829452392045], [-2.100030551637514, 52.77576635831184], [-2.100007131384017, 52.77570237279647], [-2.099974656391784, 52.77563300121962], [-2.099943834808272, 52.77557351669773], [-2.099899507331659, 52.775506851961175], [-2.099850747357501, 52.77544648360448], [-2.099806755792761, 52.775396898618], [-2.099734292838167, 52.775342842857974], [-2.099659048589527, 52.775304071563184], [-2.099589871827681, 52.77526080035931], [-2.099430475538738, 52.77517697236518], [-2.099350929141966, 52.775136496481736], [-2.099191368935959, 52.77504538679888], [-2.099113140526026, 52.77499762814681], [-2.099043808578644, 52.7749508508434], [-2.098972992396975, 52.77490317578943], [-2.098915502896291, 52.77484910700135], [-2.098868221227239, 52.77478604014587], [-2.098832796313175, 52.7747220644179], [-2.098811025473403, 52.7746653587825], [-2.098799453983017, 52.774595969416545], [-2.098789523494652, 52.774531163329556], [-2.098797397246326, 52.77447353398719], [-2.098802643613525, 52.774433885860766], [-2.09881398810289, 52.77440331204871], [-2.098845134217769, 52.774345663266644], [-2.098864123407616, 52.77428721557683], [-2.098874939387835, 52.77421978520073], [-2.098879389353737, 52.77415586605203], [-2.098882358221152, 52.774092487510835], [-2.098881970667768, 52.77405239461024], [-2.098874321402455, 52.773947763078446], [-2.098862776549115, 52.7738900600542], [-2.098845545903253, 52.77374372518321], [-2.098832825511312, 52.77369051789238], [-2.098821106674244, 52.77355613446171], [-2.098820234285651, 52.77349833262146], [-2.098826792363738, 52.77338362095681], [-2.098839764646102, 52.77328670316882], [-2.098850344599874, 52.773245971835635], [-2.098862436218722, 52.77321818413775], [-2.098883875175149, 52.77319434401397], [-2.098902065145004, 52.77317581041469], [-2.098920413951597, 52.77316195122687], [-2.098950762870463, 52.77314529525321], [-2.098984372573966, 52.77312854664907], [-2.099027026395615, 52.77311277931383], [-2.099065239697703, 52.77309980242993], [-2.099089536356642, 52.77309420858894], [-2.099112503258975, 52.7730905036546], [-2.099145994323154, 52.77308678989877], [-2.099185563740539, 52.77308352051467], [-2.099316154373344, 52.77308430993747], [-2.099396199987786, 52.773085411367596], [-2.099683628488344, 52.77309173194127], [-2.099807987406259, 52.77308982921783], [-2.099873045130853, 52.773083571564996], [-2.099905792922988, 52.7730789592706], [-2.099935421942049, 52.77307174264196], [-2.099970959407996, 52.77305553150085], [-2.099992126006125, 52.773042478822646], [-2.100013733142776, 52.77302762786554], [-2.100026746998934, 52.773014492175925], [-2.100046845800478, 52.77298831570007], [-2.100095585929965, 52.77291222319542], [-2.100188913266234, 52.77275914268756], [-2.100302818096082, 52.77259507745492], [-2.100304296834491, 52.772593547984066], [-2.100315534248524, 52.7725814925092], [-2.100334916000516, 52.77256592421757], [-2.100378562000222, 52.772530917992], [-2.100379745733426, 52.772530018036456], [-2.100403277552932, 52.772514356318055], [-2.100483071611981, 52.77247113892053], [-2.100527620453687, 52.77244206495265], [-2.100605013563118, 52.7723862641912], [-2.100669230448786, 52.77233739651463], [-2.100687281891473, 52.77232353730422], [-2.100688613421873, 52.77232245742951], [-2.100895998234551, 52.77213817552639], [-2.100994792121689, 52.77204325186732], [-2.101038559210211, 52.77199700839778], [-2.101065907383943, 52.771965431845366], [-2.101134930135329, 52.77188024216509], [-2.101214863866998, 52.7717704118384], [-2.101370345631274, 52.77151380786195], [-2.10140937098551, 52.77146855715957], [-2.101439331043086, 52.771413156061314], [-2.101491668953873, 52.77135620754759], [-2.101539543933582, 52.771292340911764], [-2.101584187902553, 52.771241332038315], [-2.101624266920015, 52.77120318207681], [-2.101662997180809, 52.771158740598345], [-2.101685293523814, 52.77112231389895], [-2.10174460996024, 52.77107084287944], [-2.101853138390879, 52.77095721192157], [-2.101903700991763, 52.770902152547876], [-2.102017428714253, 52.77079382077425], [-2.102067842909844, 52.77073885135204], [-2.102101990152217, 52.7706998073897], [-2.102146469240421, 52.77064223609347], [-2.1022191478857, 52.77053771514286], [-2.102242802754188, 52.7705120745826], [-2.102269250733094, 52.77047663302923], [-2.102278112602635, 52.770463320884105], [-2.102334869056451, 52.7703954009576], [-2.102387510742059, 52.77034258695368], [-2.102396532185047, 52.77033412900114], [-2.102431409754924, 52.770290769340406], [-2.102456232337495, 52.77025757653034], [-2.102475277133264, 52.77022555735548], [-2.102483975433744, 52.77020577288279], [-2.102537804991889, 52.77009110989441], [-2.102674918965453, 52.7697822010431], [-2.102828228492383, 52.769804811415305], [-2.103017718131733, 52.769833772658856], [-2.103107275675046, 52.76984834758183], [-2.103200690535552, 52.76986444729176], [-2.103252438853628, 52.76987312198755], [-2.103308647348639, 52.76988754605946], [-2.103476522997396, 52.76992704317299], [-2.103624974810471, 52.76996332083139], [-2.10379092485591, 52.770003088871405], [-2.103899488065441, 52.77003158028064], [-2.103902448120187, 52.770029779778156], [-2.103997952877637, 52.77005181010763], [-2.104096282030723, 52.77007725389305], [-2.104199206041743, 52.77010269355147], [-2.104297972756985, 52.770125080348], [-2.104395557496664, 52.770148996323094], [-2.104494917935569, 52.770171652117426], [-2.104540891129676, 52.770182309044046], [-2.104599020368399, 52.7701938541616], [-2.10463046177824, 52.77020182704051], [-2.104697009220549, 52.770200779341415], [-2.104726942091809, 52.77019778631664], [-2.104802667995221, 52.77019214578147], [-2.104855131693873, 52.77018985193189], [-2.104912041921375, 52.770187554117534], [-2.105021751728066, 52.7701993229785], [-2.105068151726218, 52.7702025180217], [-2.105125660474165, 52.77020255684836], [-2.105168795346868, 52.770203956848704], [-2.105192517373602, 52.77020690230761], [-2.105238626823666, 52.770212524712406], [-2.105315882054451, 52.770226389745076], [-2.105380399290991, 52.77024386187747], [-2.105457538631986, 52.77027103140845], [-2.105564815405571, 52.770318400428245], [-2.105678913950438, 52.77036720158261], [-2.105813069671535, 52.770435491951254], [-2.105866935780096, 52.770461243697554], [-2.105948860376727, 52.770505488712395], [-2.105996345137731, 52.77052791999034], [-2.10603788366966, 52.77054316496236], [-2.106070531276774, 52.77055931684012], [-2.106085372898416, 52.770567394104184], [-2.106097250143052, 52.770575474023815], [-2.10610912958309, 52.77058445289206], [-2.106119526836159, 52.770593433088095], [-2.106131417023854, 52.77060681680831], [-2.106158201702336, 52.770649942473106], [-2.106160294310135, 52.77065713221047], [-2.106169222550233, 52.770671507430464], [-2.106176657419964, 52.77068129933536], [-2.106194491779725, 52.77070097037885], [-2.106204740858558, 52.77070995070021], [-2.106215136187342, 52.77071812183281], [-2.106226866374127, 52.77072665134713], [-2.106277042515501, 52.77075851909014], [-2.106343835383511, 52.770796934230475], [-2.106413157996993, 52.77083939234153], [-2.106507701045233, 52.77089117681701], [-2.10657597300149, 52.77092815217212], [-2.106638603228136, 52.770961267078555], [-2.106719048661981, 52.77100605226224], [-2.106787638366046, 52.771051567250005], [-2.106839760692637, 52.77109098419216], [-2.106881463283163, 52.77111234159139], [-2.106892818937979, 52.77111915437982], [-2.106942813374574, 52.77113097538007], [-2.10697938442309, 52.77113294699255], [-2.107035863635465, 52.77113574560615], [-2.107135896454472, 52.77114707178657], [-2.107177109156734, 52.77116201999938], [-2.107200688837105, 52.77117912367514], [-2.107218376349166, 52.77119908236089], [-2.107268118215665, 52.771270746668456], [-2.107277194503352, 52.771284851984085], [-2.107283308580632, 52.77129985893577], [-2.107303134827594, 52.771345597604665], [-2.107324663802054, 52.77142064055104], [-2.107344688684669, 52.771486785235105], [-2.107353952278638, 52.77151671192397], [-2.107357088888539, 52.771526417757016], [-2.107361705728458, 52.77153531319078], [-2.107370618359638, 52.77154312598542], [-2.107379673008138, 52.77154842158586], [-2.107391691885904, 52.77155362460092], [-2.107405040554886, 52.77155711839987], [-2.107464974350444, 52.77157809946653], [-2.107538403121265, 52.77160176509738], [-2.107574310308544, 52.77161683485535], [-2.107596713924471, 52.77162571411245], [-2.107604279947036, 52.771628404089135], [-2.107619254883476, 52.77163018837731], [-2.107635559380429, 52.77163017355116], [-2.107644598742381, 52.77162926637879], [-2.107719260497963, 52.771612028475715], [-2.107786364846071, 52.771595606464615], [-2.107790957520366, 52.77159470333044], [-2.107795399746075, 52.771592901381474], [-2.107798361971637, 52.77159199973194], [-2.107804284196392, 52.77158929748301], [-2.107811834642314, 52.771585694799], [-2.107816272413747, 52.77158209494997], [-2.107861099654836, 52.7715480737343], [-2.107898234861765, 52.77152035217562], [-2.107926646972195, 52.771501538181305], [-2.107947212643218, 52.7714865069336], [-2.107942377704395, 52.77144947453362], [-2.107928828209443, 52.77142476571831], [-2.107925850844178, 52.77141955451339], [-2.107924205026005, 52.77141335324743], [-2.10792270965867, 52.77140805079595], [-2.107922685591671, 52.77139834213959], [-2.107924143743463, 52.771388632131675], [-2.107927086118721, 52.77137972982687], [-2.10793313869944, 52.77136983583895], [-2.107940675278252, 52.77136065965868], [-2.107949839841287, 52.77135049314626], [-2.107956041749068, 52.77134104849676], [-2.107963723195889, 52.7713305237553], [-2.107972741086202, 52.771320986641044], [-2.107987688506116, 52.77131171380183], [-2.10806350010045, 52.771280271194776], [-2.108120971423624, 52.77126466684444], [-2.108159488902456, 52.77125654108733], [-2.108242452671937, 52.77124028411371], [-2.108335735948736, 52.77120154384378], [-2.108337808585443, 52.77120055309975], [-2.108508957636511, 52.77112227741427]]]}}, {"type": "Feature", "properties": {"Quadrant": "North West"}, "geometry": {"type": "Polygon", "coordinates": [[[-2.1539130468419616, 52.805160887925375], [-2.153856789632582, 52.80582450946909], [-2.153848455385191, 52.806407950278164], [-2.153840225300942, 52.806570713482415], [-2.153853491292494, 52.80696710840004], [-2.153914441637182, 52.80742814663884], [-2.154062088826605, 52.80808956956275], [-2.154155377314524, 52.8084589889637], [-2.154176492839577, 52.80854972901604], [-2.154280472465698, 52.809001725081494], [-2.154662236401397, 52.81038296180665], [-2.154915947973602, 52.81124734824703], [-2.155156251890713, 52.81205432601429], [-2.155321477407799, 52.81262675428287], [-2.155596186642108, 52.81350647980652], [-2.155703611910075, 52.814093361926], [-2.155751753610504, 52.81469281357462], [-2.155734134748682, 52.81558011121466], [-2.155614518421024, 52.816169089265394], [-2.155422602193858, 52.81682736009119], [-2.155047376176158, 52.81771512668818], [-2.154746524664505, 52.81822615399044], [-2.15439502687441, 52.818705702501816], [-2.154172248189063, 52.81905297629316], [-2.153606058182278, 52.81968117504938], [-2.153123840666304, 52.82011784216948], [-2.152746619892748, 52.82042397288855], [-2.152364831823265, 52.82072022256885], [-2.152256745027113, 52.82081022988388], [-2.152185717998801, 52.820861546580026], [-2.151901501052638, 52.821071394994085], [-2.150730738756394, 52.821918734685816], [-2.149832212586439, 52.82256531083988], [-2.14867155304736, 52.82338484790687], [-2.147937389158543, 52.82395211859797], [-2.14709550823774, 52.82469386502891], [-2.146959356489798, 52.82481275029262], [-2.146801257658292, 52.8249908859113], [-2.146481888269859, 52.82535174413411], [-2.146255712080835, 52.82562711199795], [-2.146062043357813, 52.82585480791869], [-2.145740084497203, 52.82632261191168], [-2.145521485423676, 52.826634814009644], [-2.14551710019824, 52.826641110202296], [-2.145328509847834, 52.826596407945146], [-2.144961619651248, 52.82651148196481], [-2.144875595724485, 52.826510688225426], [-2.144556455032194, 52.826506584159496], [-2.144185403734053, 52.82649445461536], [-2.143945056871523, 52.82652440387275], [-2.143559464398963, 52.82659227354395], [-2.143335468191958, 52.82664556709816], [-2.143033048478471, 52.826740384531405], [-2.142411943520269, 52.826971195659056], [-2.142096296386622, 52.827101075504096], [-2.141549408821154, 52.82735435116409], [-2.141133094634658, 52.82757412702911], [-2.140494570777804, 52.82791198242056], [-2.14038194410203, 52.8279733168704], [-2.140374489057697, 52.82797602163355], [-2.138627650299932, 52.82888961568485], [-2.138402378639996, 52.829009404312224], [-2.137391936017798, 52.829545477492594], [-2.136495417114385, 52.83000942706895], [-2.134678819164173, 52.830974268319814], [-2.133405805157356, 52.83163732048195], [-2.13282493728563, 52.831939122480335], [-2.132098750090014, 52.83230668765878], [-2.13157679669809, 52.83246912216043], [-2.131207362945486, 52.83252165523447], [-2.131054573543848, 52.83254339266447], [-2.129636309094488, 52.83279487785907], [-2.128628827192776, 52.83295054909827], [-2.127306858004917, 52.83312102040255], [-2.126153863736994, 52.83323998104017], [-2.125220434570401, 52.83332194264899], [-2.123958969046345, 52.83338887318565], [-2.123291103942313, 52.83342641686772], [-2.121968831658211, 52.83350147730539], [-2.121621508032803, 52.83350273333441], [-2.121612578871019, 52.83350453948692], [-2.121421043123369, 52.83350293897178], [-2.120626952419602, 52.83348128295991], [-2.120230499251539, 52.833462813598736], [-2.119439273233986, 52.83341418655614], [-2.119002756415916, 52.83337957701605], [-2.118264827248977, 52.83330662344266], [-2.117783798674413, 52.833239611921556], [-2.117666505361416, 52.83322085609542], [-2.11765903678674, 52.83321996457164], [-2.116941804584574, 52.83310474450957], [-2.116157688712898, 52.83296523157388], [-2.114987433258999, 52.83272282922484], [-2.1145067785511955, 52.8326132329224], [-2.1120924679021043, 52.804173450836025], [-2.1539130468419616, 52.805160887925375]]]}}, {"type": "Feature", "properties": {"Quadrant": "South West"}, "geometry": {"type": "Polygon", "coordinates": [[[-2.1092970638195885, 52.77124451396536], [-2.109303428898094, 52.771242365526625], [-2.109316750764748, 52.771235161609845], [-2.109331554840256, 52.77122795632244], [-2.109343246263563, 52.7712207539087], [-2.109355088162201, 52.77121445030649], [-2.109368414528184, 52.77120904428318], [-2.109389156470207, 52.771205429308736], [-2.109401014170071, 52.771205418349496], [-2.109418809756757, 52.771208997706985], [-2.109434983950605, 52.771216174367865], [-2.109448348498427, 52.77122596058462], [-2.109478240443208, 52.771265486816596], [-2.109527300517617, 52.771323873291394], [-2.109561322451443, 52.77135530511468], [-2.109571720598281, 52.771364285006555], [-2.109583600967573, 52.77137326352522], [-2.109596959034412, 52.77138044277104], [-2.109610312579274, 52.7713858241161], [-2.109625145856366, 52.771390215242306], [-2.109641457054065, 52.771392896989425], [-2.109671103695232, 52.771393768475576], [-2.109697776839834, 52.771391046903304], [-2.109722963231409, 52.77138652879984], [-2.109740733767115, 52.7713801297682], [-2.109755389599873, 52.771372924565526], [-2.109768706898778, 52.771363922698946], [-2.109776099855222, 52.771356724228916], [-2.109787916792889, 52.771340532137884], [-2.109795312009198, 52.77133423261626], [-2.10980270495623, 52.77132703414453], [-2.109810102435414, 52.77132163357156], [-2.109818986663952, 52.7713180295222], [-2.109827873158681, 52.77131532442179], [-2.109838244136286, 52.77131351689491], [-2.109858997430425, 52.77131439658648], [-2.109879759573442, 52.77131878217796], [-2.10990052648586, 52.771325055559984], [-2.109922780160213, 52.7713331254611], [-2.109944887891159, 52.771342094445316], [-2.109962553519863, 52.7713528654557], [-2.110012165887416, 52.771394890295184], [-2.110051405080635, 52.77143782371039], [-2.110077562388641, 52.77146557699519], [-2.110087805626695, 52.77147186013067], [-2.110099380366646, 52.77147715317986], [-2.110111249507613, 52.77148163689754], [-2.110127417094758, 52.7714861166148], [-2.110146544581003, 52.77148879567215], [-2.110164333292974, 52.771489588173864], [-2.11018211768314, 52.77148867266869], [-2.110198417575216, 52.77148685959123], [-2.110216199687873, 52.771485045131364], [-2.11023990841039, 52.77148232619754], [-2.110287321064549, 52.7714750005216], [-2.110312511998658, 52.771472280192214], [-2.110339034650683, 52.77146865966434], [-2.110364225577894, 52.771465939323996], [-2.110405574992479, 52.77146410285932], [-2.110424846148272, 52.7714649838344], [-2.110443973415404, 52.77146757294883], [-2.110479273094032, 52.77147652952362], [-2.110505683790614, 52.771487202395136], [-2.110518886747741, 52.77149159493161], [-2.110530753653522, 52.77149517965771], [-2.110542470056614, 52.77149786557144], [-2.110555812340501, 52.77149875206207], [-2.11056914777609, 52.77149694170249], [-2.110582478644134, 52.77149333344225], [-2.110592988721148, 52.77148792991267], [-2.11063163131538, 52.77147081371925], [-2.110676355555082, 52.771455489730265], [-2.110717978530571, 52.771444663383825], [-2.110755015749932, 52.77143743712054], [-2.110771315598959, 52.77143562396439], [-2.110787620021509, 52.77143560870514], [-2.110802300865019, 52.77143829181861], [-2.110815506125162, 52.771443583271704], [-2.110824269531681, 52.77145076668077], [-2.110833035000624, 52.7714587591438], [-2.110844619210701, 52.771467737813474], [-2.110861863106494, 52.77148740870665], [-2.110873465414898, 52.77150348907501], [-2.110883434997052, 52.771518672019994], [-2.110897999708167, 52.77153394055419], [-2.110909583722582, 52.77154282932245], [-2.110922647904677, 52.77155090764599], [-2.110937337728342, 52.77155709664592], [-2.110960914259566, 52.77156067035383], [-2.110987592008434, 52.77155974639074], [-2.111012782718374, 52.77155693601775], [-2.111030560240633, 52.77155332353678], [-2.111046855765131, 52.77154980233865], [-2.111063294693826, 52.77154439320516], [-2.111084173408954, 52.77153628304778], [-2.11110208308175, 52.77152637777013], [-2.111117026006263, 52.77151557632311], [-2.111156094955109, 52.77149135784017], [-2.111168073410788, 52.77148055917045], [-2.111181538673027, 52.77147155700639], [-2.111220609613395, 52.77144814755665], [-2.11123393375233, 52.771441932269525], [-2.111248885803066, 52.77143472660401], [-2.111265317771517, 52.77142662059378], [-2.111298042659977, 52.77141400450405], [-2.111315961427328, 52.771407694992234], [-2.111333736564963, 52.77140318351623], [-2.111353146737936, 52.771400468402874], [-2.111372262764184, 52.77139865251483], [-2.111391529080615, 52.771397645538826], [-2.111444884359395, 52.77139579741312], [-2.111471418378239, 52.771396671379954], [-2.111483278200819, 52.771397469267185], [-2.111493505741429, 52.77139754952933], [-2.111506845481326, 52.7713974470685], [-2.111520331370771, 52.771396535411945], [-2.111533664432159, 52.77139382599438], [-2.11154551297016, 52.77139021902257], [-2.111556025206261, 52.771385714357216], [-2.111564907230358, 52.77138130112263], [-2.111572455025922, 52.77137679924982], [-2.11159235253582, 52.771332911648614], [-2.11161610196439, 52.77123049865286], [-2.111626860124234, 52.7712063067058], [-2.111632750022231, 52.77119110886655], [-2.11164157644827, 52.77116503094106], [-2.111643033073353, 52.77115505120266], [-2.111647456654057, 52.771146057512716], [-2.111654849263591, 52.771138858925546], [-2.111666688500281, 52.77113165614314], [-2.111680016860068, 52.77112714880988], [-2.111694827426657, 52.771122640076506], [-2.11172134744446, 52.771118120290026], [-2.111749504577888, 52.7711162059122], [-2.111777664247422, 52.771115280372236], [-2.111875489830111, 52.77111509805884], [-2.111922915905762, 52.7711132553217], [-2.111946478409872, 52.771111435136575], [-2.111964262377003, 52.771110429469374], [-2.111982044262497, 52.7711086147449], [-2.11199833954404, 52.77110509341594], [-2.112005743651252, 52.77110238955482], [-2.112013001849324, 52.771100584783106], [-2.112018921433389, 52.77109698337416], [-2.112027939776666, 52.7710879853216], [-2.112029410420081, 52.77108348917085], [-2.112038199345389, 52.771042938127074], [-2.112049816405959, 52.77094943614459], [-2.112051208385985, 52.770914375706695], [-2.11205265125974, 52.77089909216014], [-2.112055583274455, 52.770886504059284], [-2.112057051594722, 52.770881108958434], [-2.112059978979765, 52.770866722958154], [-2.1120627787344, 52.77086033774976], [-2.112068670516453, 52.77084594894275], [-2.112086382865574, 52.770817165713815], [-2.112095215888172, 52.77079378460201], [-2.11209666568564, 52.770781197903545], [-2.112096644856502, 52.77077310735683], [-2.112095141829984, 52.77076501821377], [-2.112095100172308, 52.77074883712032], [-2.112098022907256, 52.77073265321954], [-2.112099486588321, 52.77072546021874], [-2.112105378340128, 52.7707110714096], [-2.112111135756391, 52.77070207643837], [-2.112118527982828, 52.7706947879269], [-2.112125918123349, 52.770686690360264], [-2.112143669730447, 52.7706731892661], [-2.112164390345653, 52.77066148325959], [-2.112183626440141, 52.77064887970456], [-2.112198420345704, 52.77063798836556], [-2.112238358454647, 52.77060648718824], [-2.112244243192538, 52.77058940152298], [-2.112238263447376, 52.770569630252275], [-2.112227837137415, 52.77054986319713], [-2.112174318495518, 52.77048788624805], [-2.112166879766395, 52.770477105874775], [-2.112165365158447, 52.77046452198379], [-2.112163845919967, 52.77045014019339], [-2.112165291054904, 52.77043575559401], [-2.112166597233362, 52.770424966933746], [-2.112166557865464, 52.77040968478908], [-2.112163549496612, 52.770392607554], [-2.112165008292539, 52.77038352675765], [-2.112182676385279, 52.770337663467984], [-2.112198864576051, 52.77029270052999], [-2.112222326767415, 52.77025213555775], [-2.112240022553971, 52.77021705965517], [-2.112263635433761, 52.77017748337843], [-2.112284318691015, 52.77015139415462], [-2.112296117911399, 52.770128819268095], [-2.112300538935292, 52.77011892660264], [-2.112303480100635, 52.77010993429296], [-2.112301972421764, 52.77010004725214], [-2.112298989524496, 52.77009285846666], [-2.112292894062162, 52.77008567263392], [-2.112286949137453, 52.77007938560998], [-2.112273591027107, 52.77007220666546], [-2.112258903600168, 52.770066826884005], [-2.112242588103304, 52.77006234759647], [-2.112208482127832, 52.77005617716389], [-2.112134373462079, 52.7700562473923], [-2.112104732310146, 52.77005717442043], [-2.112073611297373, 52.77005900179428], [-2.112042488200126, 52.77006002010519], [-2.112024852648861, 52.770060935748816], [-2.111986316138264, 52.77006097221373], [-2.111970016853269, 52.77006278553691], [-2.111952233081994, 52.77006370130995], [-2.111937406724164, 52.770061917427824], [-2.111928509061387, 52.77006012793787], [-2.111919755226454, 52.770056630302584], [-2.111912335117775, 52.77005304151047], [-2.111907719587224, 52.77004495530675], [-2.111907693941837, 52.77003497696452], [-2.111909153010201, 52.770025986065704], [-2.111916531523651, 52.77001339376247], [-2.111929838718631, 52.770000795852695], [-2.111943150528174, 52.76998999584091], [-2.111954834023574, 52.76998000642447], [-2.111968150443861, 52.76997100430937], [-2.111982946716844, 52.76996110184081], [-2.112018456357012, 52.76993679653883], [-2.112028815351715, 52.76993049407144], [-2.112037692174588, 52.76992419300604], [-2.112045084513059, 52.769916994393235], [-2.11205246967766, 52.76990700903565], [-2.112056886107487, 52.76989531847934], [-2.11206115663175, 52.76988452701294], [-2.112064088576289, 52.76987193890972], [-2.112069957087751, 52.76984856060257], [-2.112087678288568, 52.769823373167924], [-2.112098021046295, 52.76981077804592], [-2.112103785057389, 52.76980439002811], [-2.112111327895712, 52.76979809022044], [-2.112115607655658, 52.76979089455104], [-2.112118558095971, 52.76978549804458], [-2.112120026371614, 52.769780102941965], [-2.11211999627992, 52.769768416594765], [-2.112117013435364, 52.76976122780426], [-2.112114032906413, 52.76975493796346], [-2.112105126041266, 52.769749552687486], [-2.11208153651156, 52.76974058550661], [-2.112054827741859, 52.76972901431319], [-2.112026636824499, 52.76971744451647], [-2.112001405620337, 52.769704074008615], [-2.111989680592366, 52.76969788233367], [-2.111968893350152, 52.76968351876706], [-2.111962944135099, 52.76967552372177], [-2.111958479162622, 52.769668336329126], [-2.111955494271316, 52.76966033847962], [-2.111953988998269, 52.7696513503834], [-2.111955445964177, 52.76964155042861], [-2.11195690500967, 52.76963255952861], [-2.111961321437439, 52.769620868975316], [-2.111968702410297, 52.76960926551281], [-2.11197905208721, 52.76959936725019], [-2.11199089085312, 52.769592164433824], [-2.112002734239749, 52.769586759515875], [-2.112016059780642, 52.76958135319417], [-2.11203664557458, 52.76957504104723], [-2.112058866361942, 52.76957052525293], [-2.112081091772554, 52.769567807354115], [-2.112232245807901, 52.76955759586994], [-2.11239806383506, 52.76954377446171], [-2.112473630333576, 52.76953462326768], [-2.112486816873732, 52.76953281283315], [-2.112498664827827, 52.769529205765316], [-2.112510510224919, 52.76952460985153], [-2.112520869050763, 52.76951830734083], [-2.112529597503318, 52.76951200637917], [-2.112536989458569, 52.7695047178403], [-2.112548670364674, 52.7694938294149], [-2.112557384865943, 52.769482134752266], [-2.112566101454061, 52.76947124914382], [-2.112570536061952, 52.769466660271206], [-2.112573340532889, 52.76946216284396], [-2.112577775371512, 52.76945766386602], [-2.11258221253346, 52.76945406383776], [-2.112586647137914, 52.76944947496454], [-2.112589458579249, 52.76944767438634], [-2.112605731804289, 52.76943588263501], [-2.112624670568713, 52.76942318939322], [-2.112645242014154, 52.76941139354671], [-2.112667297925455, 52.76940049523569], [-2.112714378669472, 52.769380493678334], [-2.112737775232422, 52.769372201038465], [-2.112755841401242, 52.76936598106139], [-2.112777906807832, 52.76935876842405], [-2.112797163109326, 52.76935425531565], [-2.112817899227041, 52.769348841841655], [-2.112838639998628, 52.76934522626369], [-2.112871235628691, 52.769340700426476], [-2.112939395595848, 52.76933335390163], [-2.112962952432329, 52.76932973561502], [-2.112985177663793, 52.769327017546814], [-2.113008882707886, 52.76932339910963], [-2.113017773265003, 52.76932249166934], [-2.113028143636665, 52.76932068386337], [-2.113037032092591, 52.769318967366814], [-2.113134771895983, 52.769287320773316], [-2.113263325464912, 52.769249981220874], [-2.113315165480887, 52.76923644732532], [-2.113418732089426, 52.76922277396071], [-2.113429104996567, 52.76922195496447], [-2.113440957472111, 52.76922014570213], [-2.113451010073318, 52.76921926498323], [-2.113469515680789, 52.769246943958734], [-2.114042504235266, 52.77017052136812], [-2.1147290366452, 52.77141302207126], [-2.115831341131013, 52.773422957293874], [-2.116135227599744, 52.7739944088442], [-2.117115293300224, 52.775767913760475], [-2.117637848837451, 52.776602552655476], [-2.11816905073573, 52.77732744917279], [-2.118450087682705, 52.777656179849515], [-2.119006344310075, 52.77828129266586], [-2.119477532469734, 52.7787689878949], [-2.119673771493579, 52.77896839000804], [-2.120167336177155, 52.779453273979684], [-2.120639897414178, 52.77985370018977], [-2.121457071654949, 52.78052535700355], [-2.122152474600384, 52.781049568417984], [-2.122911424979286, 52.78156211690695], [-2.123403070110716, 52.78186455447193], [-2.123900585012376, 52.782165186844125], [-2.124769281405177, 52.78265415217985], [-2.125762583348782, 52.783150258549156], [-2.126853740579592, 52.783658833489476], [-2.127569285555627, 52.783967304497565], [-2.127924115818601, 52.784117003208934], [-2.12973038940841, 52.784763175697776], [-2.130260214675747, 52.78492804312567], [-2.131956460076561, 52.785429523190885], [-2.133115472181939, 52.78577790769285], [-2.134200310731729, 52.78609131578494], [-2.1367662473886, 52.78683186850597], [-2.137962524591934, 52.78718735148256], [-2.13890497734056, 52.78749189549369], [-2.139329519095622, 52.78762889657112], [-2.139434890233741, 52.78766292276526], [-2.139826759167462, 52.78778926661699], [-2.14118521978759, 52.78830179670561], [-2.141743457295385, 52.78853038636422], [-2.142077615495376, 52.78868824605694], [-2.143384523497917, 52.789307847040746], [-2.14421768851959, 52.78970234988744], [-2.145476034868367, 52.79040646382464], [-2.14699628292227, 52.791391620587326], [-2.147256513507719, 52.79158640347611], [-2.147289231106912, 52.79160793128378], [-2.147408139685669, 52.791699450103984], [-2.148102432507908, 52.79222000506927], [-2.148648107482971, 52.79264718801006], [-2.149119714575539, 52.793079046312776], [-2.149643337523144, 52.79355837702477], [-2.149990162263045, 52.79393098504291], [-2.150539331346625, 52.79450832681977], [-2.15085948905648, 52.79487287828861], [-2.151137942774331, 52.795198838088155], [-2.15156110930942, 52.79575117234576], [-2.151915722055823, 52.796243380516415], [-2.152258869492471, 52.79681100250981], [-2.152594646635921, 52.79740208920876], [-2.152966265238934, 52.798063225906766], [-2.153391113276706, 52.79911270719748], [-2.153574116063464, 52.79968421714949], [-2.15375286828716, 52.800332120366235], [-2.153893209958651, 52.80100973122298], [-2.153988645044541, 52.80157596128171], [-2.154045043707264, 52.80199656483711], [-2.154050826967618, 52.80238667893473], [-2.154068526752074, 52.8027570060631], [-2.154042392229562, 52.80335484899773], [-2.153997134894551, 52.80397518320942], [-2.153951974854917, 52.80462337737929], [-2.153938034205786, 52.804866131873], [-2.1539130468419616, 52.805160887925375], [-2.1120924679021043, 52.804173450836025], [-2.1092970638195885, 52.77124451396536]]]}}, {"type": "Feature", "properties": {"Quadrant": "North East"}, "geometry": {"type": "Polygon", "coordinates": [[[-2.1145067785511955, 52.8326132329224], [-2.114139306034491, 52.83252944381469], [-2.113322498020909, 52.832328832639966], [-2.112398596216553, 52.832074487045745], [-2.111562342141599, 52.831824453850444], [-2.110926545311482, 52.83161916262381], [-2.110500166936345, 52.83147127792523], [-2.109776575547744, 52.831194167679264], [-2.108984755057018, 52.83088745880323], [-2.108317484446529, 52.83056445431134], [-2.107971197316922, 52.830382247402895], [-2.107595174771072, 52.83015072892614], [-2.10729918832727, 52.82991814792483], [-2.106958635359502, 52.829626293291916], [-2.106600023295411, 52.82925357244188], [-2.106278505083135, 52.828884321282715], [-2.106159192534537, 52.82863369513581], [-2.105994824909546, 52.82822296339712], [-2.10587384261045, 52.82788867020463], [-2.105753810822408, 52.82734048958272], [-2.105664928998411, 52.82681915131072], [-2.10551120664802, 52.82584933664507], [-2.105313987713331, 52.824700631897436], [-2.10523147352267, 52.8243285587938], [-2.10511045141649, 52.823970899300704], [-2.104801588895736, 52.82329787681027], [-2.104518473431183, 52.82279558240629], [-2.104311441765156, 52.82248652648409], [-2.104196747796917, 52.82231318073778], [-2.103434479208616, 52.82128089861116], [-2.103170905567086, 52.82090718490769], [-2.103066704071475, 52.82076887781619], [-2.10254569719615, 52.82007527426833], [-2.102414788984561, 52.81992081321196], [-2.102282426641818, 52.819771656136005], [-2.101974566643241, 52.81949512595134], [-2.101635475686708, 52.81915014198654], [-2.10131579149482, 52.81888799973162], [-2.100707965597872, 52.818455171360895], [-2.099970877337677, 52.81798659107296], [-2.09909730005225, 52.81752881524776], [-2.098044255903353, 52.81706498081231], [-2.097315134465594, 52.816798582370424], [-2.096523814585252, 52.81655919042423], [-2.096488189410498, 52.816548435726126], [-2.096437638652985, 52.81653679423275], [-2.095707246296598, 52.81635045953776], [-2.092818442750682, 52.815683866874615], [-2.092548318129673, 52.81562117023245], [-2.091748225982395, 52.8154348665354], [-2.089680425105535, 52.81496266339839], [-2.089217174195955, 52.81485427174769], [-2.088672369907231, 52.8147045106429], [-2.088258137464067, 52.8145754090672], [-2.087901863533292, 52.81443179448897], [-2.087428104372963, 52.81420298008119], [-2.086918595620999, 52.81389501545186], [-2.086515914687843, 52.81360135009456], [-2.086206725492702, 52.81332199391486], [-2.085820165182419, 52.81288623164301], [-2.085496006572458, 52.812517015080935], [-2.085036540588398, 52.81201039674347], [-2.084648278388324, 52.81150543276851], [-2.084239694895146, 52.81117671392044], [-2.084210042652044, 52.811150673699174], [-2.082494423719562, 52.80693226944934], [-2.082488403422817, 52.80691870405551], [-2.08282511197593, 52.80691307604406], [-2.083069797099914, 52.80688324826894], [-2.083400507973073, 52.80681201864708], [-2.08382596906225, 52.80665804223811], [-2.084132730315482, 52.80647350368661], [-2.084276327913273, 52.806351179869374], [-2.084418312789164, 52.80615507421701], [-2.08459130456957, 52.80586638172675], [-2.084620910301948, 52.80580704718239], [-2.084678543863091, 52.805695568971444], [-2.084791110786006, 52.80559294734952], [-2.084872543996443, 52.80551919694107], [-2.084916998219565, 52.805485913020604], [-2.085023613582164, 52.80540495465874], [-2.084792116468611, 52.805356502167584], [-2.084585645443374, 52.805220947704946], [-2.084252864501651, 52.804973956005036], [-2.084007666200416, 52.80473238208587], [-2.083847157699025, 52.80458142709148], [-2.083711890325364, 52.804454807379514], [-2.083478514634534, 52.80418797167538], [-2.083150776046991, 52.80420437900797], [-2.083032119285948, 52.80419188068611], [-2.082674306040673, 52.80402129007054], [-2.082420374433242, 52.8038749812071], [-2.08211596324364, 52.80374389454806], [-2.082004594433265, 52.803638824710134], [-2.0819181654645296, 52.80346099715587], [-2.1120924679021043, 52.804173450836025], [-2.1145067785511955, 52.8326132329224]]]}}]}